[{"OBJECT_NAME":"ONEWEB-0012","OBJECT_ID":"2019-010A","EPOCH":"2025-08-02T07:03:16.752960","MEAN_MOTION":13.16596885,"ECCENTRICITY":0.0002405,"INCLINATION":87.9044,"RA_OF_ASC_NODE":292.3672,"ARG_OF_PERICENTER":103.9821,"MEAN_ANOMALY":256.1577,"EPHEMERIS_TYPE":0,"CLASSIFICATION_TYPE":"U","NORAD_CAT_ID":44057,"ELEMENT_SET_NO":999,"REV_AT_EPOCH":30960,"BSTAR":-0.00014048,"MEAN_MOTION_DOT":-4.1e-7,"MEAN_MOTION_DDOT":0},{"OBJECT_NAME":"ONEWEB-0010","OBJECT_ID":"2019-010B","EPOCH":"2025-08-02T13:08:02.251392","MEAN_MOTION":13.16595874,"ECCENTRICITY":0.0002053,"INCLINATION":87.9041,"RA_OF_ASC_NODE":292.2997,"ARG_OF_PERICENTER":86.0206,"MEAN_ANOMALY":274.116,"EPHEMERIS_TYPE":0,"CLASSIFICATION_TYPE":"U","NORAD_CAT_ID":44058,"ELEMENT_SET_NO":999,"REV_AT_EPOCH":30968,"BSTAR":-3.7689e-5,"MEAN_MOTION_DOT":-2.0e-8,"MEAN_MOTION_DDOT":0},{"OBJECT_NAME":"ONEWEB-0008","OBJECT_ID":"2019-010C","EPOCH":"2025-08-02T11:55:05.534976","MEAN_MOTION":13.1659409,"ECCENTRICITY":0.0001884,"INCLINATION":87.9039,"RA_OF_ASC_NODE":292.3082,"ARG_OF_PERICENTER":102.8476,"MEAN_ANOMALY":257.2865,"EPHEMERIS_TYPE":0,"CLASSIFICATION_TYPE":"U","NORAD_CAT_ID":44059,"ELEMENT_SET_NO":999,"REV_AT_EPOCH":30979,"BSTAR":0.00010463,"MEAN_MOTION_DOT":5.3e-7,"MEAN_MOTION_DDOT":0},{"OBJECT_NAME":"ONEWEB-0007","OBJECT_ID":"2019-010D","EPOCH":"2025-08-03T02:45:50.407200","MEAN_MOTION":13.1554994,"ECCENTRICITY":0.0002192,"INCLINATION":87.9093,"RA_OF_ASC_NODE":322.6626,"ARG_OF_PERICENTER":92.2343,"MEAN_ANOMALY":267.9038,"EPHEMERIS_TYPE":0,"CLASSIFICATION_TYPE":"U","NORAD_CAT_ID":44060,"ELEMENT_SET_NO":999,"REV_AT_EPOCH":30959,"BSTAR":-0.0032056,"MEAN_MOTION_DOT":-1.194e-5,"MEAN_MOTION_DDOT":0},{"OBJECT_NAME":"ONEWEB-0006","OBJECT_ID":"2019-010E","EPOCH":"2025-08-02T08:36:20.026368","MEAN_MOTION":13.15548154,"ECCENTRICITY":0.0002015,"INCLINATION":87.9081,"RA_OF_ASC_NODE":322.7558,"ARG_OF_PERICENTER":90.1095,"MEAN_ANOMALY":270.0266,"EPHEMERIS_TYPE":0,"CLASSIFICATION_TYPE":"U","NORAD_CAT_ID":44061,"ELEMENT_SET_NO":999,"REV_AT_EPOCH":30950,"BSTAR":-5.905e-5,"MEAN_MOTION_DOT":-9.0e-8,"MEAN_MOTION_DDOT":0},{"OBJECT_NAME":"ONEWEB-0011","OBJECT_ID":"2019-010F","EPOCH":"2025-08-02T07:50:43.105056","MEAN_MOTION":13.15548183,"ECCENTRICITY":0.0001701,"INCLINATION":87.9083,"RA_OF_ASC_NODE":322.7722,"ARG_OF_PERICENTER":95.59,"MEAN_ANOMALY":264.5424,"EPHEMERIS_TYPE":0,"CLASSIFICATION_TYPE":"U","NORAD_CAT_ID":44062,"ELEMENT_SET_NO":999,"REV_AT_EPOCH":30949,"BSTAR":-0.00031512,"MEAN_MOTION_DOT":-1.06e-6,"MEAN_MOTION_DDOT":0},{"OBJECT_NAME":"ONEWEB-0013","OBJECT_ID":"2020-008A","EPOCH":"2025-08-03T03:28:21.695520","MEAN_MOTION":13.09430742,"ECCENTRICITY":0.0002562,"INCLINATION":87.8555,"RA_OF_ASC_NODE":117.0456,"ARG_OF_PERICENTER":95.4602,"MEAN_ANOMALY":264.6817,"EPHEMERIS_TYPE":0,"CLASSIFICATION_TYPE":"U","NORAD_CAT_ID":45131,"ELEMENT_SET_NO":999,"REV_AT_EPOCH":26520,"BSTAR":-0.0019395,"MEAN_MOTION_DOT":-6.55e-6,"MEAN_MOTION_DDOT":0},{"OBJECT_NAME":"ONEWEB-0017","OBJECT_ID":"2020-008B","EPOCH":"2025-08-02T04:58:19.810272","MEAN_MOTION":13.10373916,"ECCENTRICITY":0.0001781,"INCLINATION":87.88,"RA_OF_ASC_NODE":99.8974,"ARG_OF_PERICENTER":69.0918,"MEAN_ANOMALY":291.0399,"EPHEMERIS_TYPE":0,"CLASSIFICATION_TYPE":"U","NORAD_CAT_ID":45132,"ELEMENT_SET_NO":999,"REV_AT_EPOCH":26617,"BSTAR":0.0017423,"MEAN_MOTION_DOT":6.21e-6,"MEAN_MOTION_DDOT":0},{"OBJECT_NAME":"ONEWEB-0020","OBJECT_ID":"2020-008C","EPOCH":"2025-08-02T11:35:05.444160","MEAN_MOTION":13.1036127,"ECCENTRICITY":0.000151,"INCLINATION":87.8795,"RA_OF_ASC_NODE":99.826,"ARG_OF_PERICENTER":75.39,"MEAN_ANOMALY":284.7395,"EPHEMERIS_TYPE":0,"CLASSIFICATION_TYPE":"U","NORAD_CAT_ID":45133,"ELEMENT_SET_NO":999,"REV_AT_EPOCH":26738,"BSTAR":-0.0057363,"MEAN_MOTION_DOT":-1.989e-5,"MEAN_MOTION_DDOT":0},{"OBJECT_NAME":"ONEWEB-0021","OBJECT_ID":"2020-008D","EPOCH":"2025-08-02T11:56:38.119488","MEAN_MOTION":13.10377386,"ECCENTRICITY":0.0001937,"INCLINATION":87.8801,"RA_OF_ASC_NODE":99.8573,"ARG_OF_PERICENTER":76.8342,"MEAN_ANOMALY":283.3001,"EPHEMERIS_TYPE":0,"CLASSIFICATION_TYPE":"U","NORAD_CAT_ID":45134,"ELEMENT_SET_NO":999,"REV_AT_EPOCH":26691,"BSTAR":-0.00034782,"MEAN_MOTION_DOT":-1.09e-6,"MEAN_MOTION_DDOT":0},{"OBJECT_NAME":"ONEWEB-0023","OBJECT_ID":"2020-008F","EPOCH":"2025-08-02T12:12:09.933120","MEAN_MOTION":13.10375223,"ECCENTRICITY":0.0001678,"INCLINATION":87.8798,"RA_OF_ASC_NODE":99.8381,"ARG_OF_PERICENTER":86.0992,"MEAN_ANOMALY":274.0327,"EPHEMERIS_TYPE":0,"CLASSIFICATION_TYPE":"U","NORAD_CAT_ID":45136,"ELEMENT_SET_NO":999,"REV_AT_EPOCH":26634,"BSTAR":0.0013361,"MEAN_MOTION_DOT":4.79e-6,"MEAN_MOTION_DDOT":0},{"OBJECT_NAME":"ONEWEB-0024","OBJECT_ID":"2020-008G","EPOCH":"2025-08-02T04:12:52.614144","MEAN_MOTION":13.10373499,"ECCENTRICITY":0.0001844,"INCLINATION":87.8799,"RA_OF_ASC_NODE":99.8526,"ARG_OF_PERICENTER":75.7509,"MEAN_ANOMALY":284.3823,"EPHEMERIS_TYPE":0,"CLASSIFICATION_TYPE":"U","NORAD_CAT_ID":45137,"ELEMENT_SET_NO":999,"REV_AT_EPOCH":26646,"BSTAR":-0.001921,"MEAN_MOTION_DOT":-6.58e-6,"MEAN_MOTION_DDOT":0},{"OBJECT_NAME":"ONEWEB-0025","OBJECT_ID":"2020-008H","EPOCH":"2025-08-02T11:57:48.139776","MEAN_MOTION":13.10375902,"ECCENTRICITY":0.0002249,"INCLINATION":87.8818,"RA_OF_ASC_NODE":99.795,"ARG_OF_PERICENTER":89.7594,"MEAN_ANOMALY":270.3791,"EPHEMERIS_TYPE":0,"CLASSIFICATION_TYPE":"U","NORAD_CAT_ID":45138,"ELEMENT_SET_NO":999,"REV_AT_EPOCH":26683,"BSTAR":-7.977e-5,"MEAN_MOTION_DOT":-1.5e-7,"MEAN_MOTION_DDOT":0},{"OBJECT_NAME":"ONEWEB-0026","OBJECT_ID":"2020-008J","EPOCH":"2025-08-02T03:52:56.534880","MEAN_MOTION":13.1141744,"ECCENTRICITY":0.0001648,"INCLINATION":87.8807,"RA_OF_ASC_NODE":84.6511,"ARG_OF_PERICENTER":73.7826,"MEAN_ANOMALY":286.3483,"EPHEMERIS_TYPE":0,"CLASSIFICATION_TYPE":"U","NORAD_CAT_ID":45139,"ELEMENT_SET_NO":999,"REV_AT_EPOCH":26929,"BSTAR":0.0014502,"MEAN_MOTION_DOT":5.27e-6,"MEAN_MOTION_DDOT":0},{"OBJECT_NAME":"ONEWEB-0028","OBJECT_ID":"2020-008K","EPOCH":"2025-08-02T10:10:08.750496","MEAN_MOTION":13.11415572,"ECCENTRICITY":0.0002255,"INCLINATION":87.88,"RA_OF_ASC_NODE":84.6208,"ARG_OF_PERICENTER":93.7346,"MEAN_ANOMALY":266.404,"EPHEMERIS_TYPE":0,"CLASSIFICATION_TYPE":"U","NORAD_CAT_ID":45140,"ELEMENT_SET_NO":999,"REV_AT_EPOCH":26684,"BSTAR":-0.00080927,"MEAN_MOTION_DOT":-2.74e-6,"MEAN_MOTION_DDOT":0},{"OBJECT_NAME":"ONEWEB-0032","OBJECT_ID":"2020-008L","EPOCH":"2025-08-03T04:50:07.859904","MEAN_MOTION":13.10375098,"ECCENTRICITY":0.0001923,"INCLINATION":87.8793,"RA_OF_ASC_NODE":99.7017,"ARG_OF_PERICENTER":82.7642,"MEAN_ANOMALY":277.3704,"EPHEMERIS_TYPE":0,"CLASSIFICATION_TYPE":"U","NORAD_CAT_ID":45141,"ELEMENT_SET_NO":999,"REV_AT_EPOCH":26751,"BSTAR":0.0016348,"MEAN_MOTION_DOT":5.83e-6,"MEAN_MOTION_DDOT":0},{"OBJECT_NAME":"ONEWEB-0033","OBJECT_ID":"2020-008M","EPOCH":"2025-08-02T04:24:49.746240","MEAN_MOTION":13.10375573,"ECCENTRICITY":0.0001791,"INCLINATION":87.8797,"RA_OF_ASC_NODE":99.9162,"ARG_OF_PERICENTER":71.0589,"MEAN_ANOMALY":289.0732,"EPHEMERIS_TYPE":0,"CLASSIFICATION_TYPE":"U","NORAD_CAT_ID":45142,"ELEMENT_SET_NO":999,"REV_AT_EPOCH":26643,"BSTAR":-0.0012793,"MEAN_MOTION_DOT":-4.34e-6,"MEAN_MOTION_DDOT":0}]
