ONEWEB-0012             
1 44057U 19010A   25214.29394390 -.00000041  00000+0 -14048-3 0  9990
2 44057  87.9044 292.3672 0002405 103.9821 256.1577 13.16596885309603
ONEWEB-0010             
1 44058U 19010B   25214.54724828 -.00000002  00000+0 -37689-4 0  9996
2 44058  87.9041 292.2997 0002053  86.0206 274.1160 13.16595874309680
ONEWEB-0008             
1 44059U 19010C   25214.49659184  .00000053  00000+0  10463-3 0  9997
2 44059  87.9039 292.3082 0001884 102.8476 257.2865 13.16594090309796
ONEWEB-0007             
1 44060U 19010D   25215.11516675 -.00001194  00000+0 -32056-2 0  9996
2 44060  87.9093 322.6626 0002192  92.2343 267.9038 13.15549940309598
ONEWEB-0006             
1 44061U 19010E   25214.35856512 -.00000009  00000+0 -59050-4 0  9998
2 44061  87.9081 322.7558 0002015  90.1095 270.0266 13.15548154309501
ONEWEB-0011             
1 44062U 19010F   25214.32688779 -.00000106  00000+0 -31512-3 0  9994
2 44062  87.9083 322.7722 0001701  95.5900 264.5424 13.15548183309496
ONEWEB-0013             
1 45131U 20008A   25215.14469555 -.00000655  00000+0 -19395-2 0  9994
2 45131  87.8555 117.0456 0002562  95.4602 264.6817 13.09430742265201
ONEWEB-0017             
1 45132U 20008B   25214.20717373  .00000621  00000+0  17423-2 0  9996
2 45132  87.8800  99.8974 0001781  69.0918 291.0399 13.10373916266173
ONEWEB-0020             
1 45133U 20008C   25214.48270190 -.00001989  00000+0 -57363-2 0  9995
2 45133  87.8795  99.8260 0001510  75.3900 284.7395 13.10361270267385
ONEWEB-0021             
1 45134U 20008D   25214.49766342 -.00000109  00000+0 -34782-3 0  9990
2 45134  87.8801  99.8573 0001937  76.8342 283.3001 13.10377386266912
ONEWEB-0023             
1 45136U 20008F   25214.50844830  .00000479  00000+0  13361-2 0  9990
2 45136  87.8798  99.8381 0001678  86.0992 274.0327 13.10375223266345
ONEWEB-0024             
1 45137U 20008G   25214.17560896 -.00000658  00000+0 -19210-2 0  9991
2 45137  87.8799  99.8526 0001844  75.7509 284.3823 13.10373499266463
ONEWEB-0025             
1 45138U 20008H   25214.49847384 -.00000015  00000+0 -79770-4 0  9993
2 45138  87.8818  99.7950 0002249  89.7594 270.3791 13.10375902266836
ONEWEB-0026             
1 45139U 20008J   25214.16176545  .00000527  00000+0  14502-2 0  9998
2 45139  87.8807  84.6511 0001648  73.7826 286.3483 13.11417440269297
ONEWEB-0028             
1 45140U 20008K   25214.42371239 -.00000274  00000+0 -80927-3 0  9992
2 45140  87.8800  84.6208 0002255  93.7346 266.4040 13.11415572266849
ONEWEB-0032             
1 45141U 20008L   25215.20147986  .00000583  00000+0  16348-2 0  9996
2 45141  87.8793  99.7017 0001923  82.7642 277.3704 13.10375098267514
ONEWEB-0033             
1 45142U 20008M   25214.18390910 -.00000434  00000+0 -12793-2 0  9997
2 45142  87.8797  99.9162 0001791  71.0589 289.0732 13.10375573266435
